{
  "type": "FeatureCollection",
  "features": [
    {
      "type": "Feature",
      "properties": {
        "norad_id": 66806,
        "name": "STARLINK-36069",
        "group": "last-30-days",
        "lat": 2.57424978828292,
        "lon": 23.725810455283014,
        "alt_km": 376.9807469849775,
        "timestamp": "2025-12-20T05:41:48.742908+00:00",
        "meta_object_name": "STARLINK-36069",
        "meta_object_id": "2025-278R",
        "meta_epoch": "2025-12-19T22:00:01.999584",
        "meta_mean_motion": 15.64962775,
        "meta_eccentricity": 0.0001243,
        "meta_inclination": 42.9994,
        "meta_ra_of_asc_node": 208.4064,
        "meta_arg_of_pericenter": 276.2127,
        "meta_mean_anomaly": 251.8874,
        "meta_ephemeris_type": 0,
        "meta_classification_type": "U",
        "meta_norad_cat_id": 66806,
        "meta_element_set_no": 999,
        "meta_rev_at_epoch": 390,
        "meta_bstar": -0.021946485,
        "meta_mean_motion_dot": -0.0195334,
        "meta_mean_motion_ddot": 0,
        "tle_line1": "1 66806U 25278R   25353.91668981 -.01953340  00000+0 -21946-1 0  9995",
        "tle_line2": "2 66806  42.9994 208.4064 0001243 276.2127 251.8874 15.64962775  3905"
      },
      "geometry": {
        "type": "Point",
        "coordinates": [
          23.725810455283014,
          2.57424978828292
        ]
      }
    },
    {
      "type": "Feature",
      "properties": {
        "norad_id": 66807,
        "name": "STARLINK-36000",
        "group": "last-30-days",
        "lat": -1.3451836018662937,
        "lon": 27.92146787736126,
        "alt_km": 377.28655310543127,
        "timestamp": "2025-12-20T05:41:48.742920+00:00",
        "meta_object_name": "STARLINK-36000",
        "meta_object_id": "2025-278S",
        "meta_epoch": "2025-12-19T22:00:01.999584",
        "meta_mean_motion": 15.64967097,
        "meta_eccentricity": 0.00011916,
        "meta_inclination": 42.9992,
        "meta_ra_of_asc_node": 208.3925,
        "meta_arg_of_pericenter": 271.0863,
        "meta_mean_anomaly": 262.7605,
        "meta_ephemeris_type": 0,
        "meta_classification_type": "U",
        "meta_norad_cat_id": 66807,
        "meta_element_set_no": 999,
        "meta_rev_at_epoch": 417,
        "meta_bstar": -0.021989985,
        "meta_mean_motion_dot": -0.01957015,
        "meta_mean_motion_ddot": 0,
        "tle_line1": "1 66807U 25278S   25353.91668981 -.01957015  00000+0 -21990-1 0  9998",
        "tle_line2": "2 66807  42.9992 208.3925 0001191 271.0863 262.7605 15.64967097  4176"
      },
      "geometry": {
        "type": "Point",
        "coordinates": [
          27.92146787736126,
          -1.3451836018662937
        ]
      }
    },
    {
      "type": "Feature",
      "properties": {
        "norad_id": 66808,
        "name": "STARLINK-36071",
        "group": "last-30-days",
        "lat": -2.652011993328245,
        "lon": 29.321334647423797,
        "alt_km": 377.39239186485884,
        "timestamp": "2025-12-20T05:41:48.742931+00:00",
        "meta_object_name": "STARLINK-36071",
        "meta_object_id": "2025-278T",
        "meta_epoch": "2025-12-19T22:00:01.999584",
        "meta_mean_motion": 15.64972945,
        "meta_eccentricity": 0.00011513,
        "meta_inclination": 42.9989,
        "meta_ra_of_asc_node": 208.3871,
        "meta_arg_of_pericenter": 268.9351,
        "meta_mean_anomaly": 266.8293,
        "meta_ephemeris_type": 0,
        "meta_classification_type": "U",
        "meta_norad_cat_id": 66808,
        "meta_element_set_no": 999,
        "meta_rev_at_epoch": 411,
        "meta_bstar": -0.022167166,
        "meta_mean_motion_dot": -0.01971273,
        "meta_mean_motion_ddot": 0,
        "tle_line1": "1 66808U 25278T   25353.91668981 -.01971273  00000+0 -22167-1 0  9998",
        "tle_line2": "2 66808  42.9989 208.3871 0001151 268.9351 266.8293 15.64972945  4116"
      },
      "geometry": {
        "type": "Point",
        "coordinates": [
          29.321334647423797,
          -2.652011993328245
        ]
      }
    },
    {
      "type": "Feature",
      "properties": {
        "norad_id": 66809,
        "name": "STARLINK-35979",
        "group": "last-30-days",
        "lat": -6.557019247579938,
        "lon": 33.54247348055188,
        "alt_km": 377.80945094054914,
        "timestamp": "2025-12-20T05:41:48.742941+00:00",
        "meta_object_name": "STARLINK-35979",
        "meta_object_id": "2025-278U",
        "meta_epoch": "2025-12-19T22:00:01.999584",
        "meta_mean_motion": 15.64965484,
        "meta_eccentricity": 0.00011464,
        "meta_inclination": 42.9993,
        "meta_ra_of_asc_node": 208.3718,
        "meta_arg_of_pericenter": 271.6941,
        "meta_mean_anomaly": 269.823,
        "meta_ephemeris_type": 0,
        "meta_classification_type": "U",
        "meta_norad_cat_id": 66809,
        "meta_element_set_no": 999,
        "meta_rev_at_epoch": 411,
        "meta_bstar": -0.021973721,
        "meta_mean_motion_dot": -0.01955595,
        "meta_mean_motion_ddot": 0,
        "tle_line1": "1 66809U 25278U   25353.91668981 -.01955595  00000+0 -21974-1 0  9993",
        "tle_line2": "2 66809  42.9993 208.3718 0001146 271.6941 269.8230 15.64965484  4116"
      },
      "geometry": {
        "type": "Point",
        "coordinates": [
          33.54247348055188,
          -6.557019247579938
        ]
      }
    },
    {
      "type": "Feature",
      "properties": {
        "norad_id": 66810,
        "name": "STARLINK-36046",
        "group": "last-30-days",
        "lat": -3.9551094498450787,
        "lon": 30.72321134464653,
        "alt_km": 377.5185642503084,
        "timestamp": "2025-12-20T05:41:48.742951+00:00",
        "meta_object_name": "STARLINK-36046",
        "meta_object_id": "2025-278V",
        "meta_epoch": "2025-12-19T22:00:01.999584",
        "meta_mean_motion": 15.64967292,
        "meta_eccentricity": 0.00012213,
        "meta_inclination": 42.9993,
        "meta_ra_of_asc_node": 208.3831,
        "meta_arg_of_pericenter": 269.6364,
        "meta_mean_anomaly": 268.0444,
        "meta_ephemeris_type": 0,
        "meta_classification_type": "U",
        "meta_norad_cat_id": 66810,
        "meta_element_set_no": 999,
        "meta_rev_at_epoch": 388,
        "meta_bstar": -0.02200078,
        "meta_mean_motion_dot": -0.01957897,
        "meta_mean_motion_ddot": 0,
        "tle_line1": "1 66810U 25278V   25353.91668981 -.01957897  00000+0 -22001-1 0  9994",
        "tle_line2": "2 66810  42.9993 208.3831 0001221 269.6364 268.0444 15.64967292  3884"
      },
      "geometry": {
        "type": "Point",
        "coordinates": [
          30.72321134464653,
          -3.9551094498450787
        ]
      }
    },
    {
      "type": "Feature",
      "properties": {
        "norad_id": 66811,
        "name": "STARLINK-36045",
        "group": "last-30-days",
        "lat": -5.258536841889332,
        "lon": 32.13144146916294,
        "alt_km": 377.6105767536883,
        "timestamp": "2025-12-20T05:41:48.742961+00:00",
        "meta_object_name": "STARLINK-36045",
        "meta_object_id": "2025-278W",
        "meta_epoch": "2025-12-19T22:00:01.999584",
        "meta_mean_motion": 15.64968266,
        "meta_eccentricity": 0.00011782,
        "meta_inclination": 42.999,
        "meta_ra_of_asc_node": 208.378,
        "meta_arg_of_pericenter": 267.4398,
        "meta_mean_anomaly": 272.1608,
        "meta_ephemeris_type": 0,
        "meta_classification_type": "U",
        "meta_norad_cat_id": 66811,
        "meta_element_set_no": 999,
        "meta_rev_at_epoch": 411,
        "meta_bstar": -0.022062301,
        "meta_mean_motion_dot": -0.01962755,
        "meta_mean_motion_ddot": 0,
        "tle_line1": "1 66811U 25278W   25353.91668981 -.01962755  00000+0 -22062-1 0  9991",
        "tle_line2": "2 66811  42.9990 208.3780 0001178 267.4398 272.1608 15.64968266  4116"
      },
      "geometry": {
        "type": "Point",
        "coordinates": [
          32.13144146916294,
          -5.258536841889332
        ]
      }
    },
    {
      "type": "Feature",
      "properties": {
        "norad_id": 66812,
        "name": "STARLINK-36054",
        "group": "last-30-days",
        "lat": -7.851947753690903,
        "lon": 34.9641629467013,
        "alt_km": 377.8792200754651,
        "timestamp": "2025-12-20T05:41:48.742971+00:00",
        "meta_object_name": "STARLINK-36054",
        "meta_object_id": "2025-278X",
        "meta_epoch": "2025-12-19T22:00:01.999584",
        "meta_mean_motion": 15.64969999,
        "meta_eccentricity": 0.00011706,
        "meta_inclination": 42.9992,
        "meta_ra_of_asc_node": 208.3683,
        "meta_arg_of_pericenter": 269.0545,
        "meta_mean_anomaly": 274.3789,
        "meta_ephemeris_type": 0,
        "meta_classification_type": "U",
        "meta_norad_cat_id": 66812,
        "meta_element_set_no": 999,
        "meta_rev_at_epoch": 411,
        "meta_bstar": -0.02207599,
        "meta_mean_motion_dot": -0.01963942,
        "meta_mean_motion_ddot": 0,
        "tle_line1": "1 66812U 25278X   25353.91668981 -.01963942  00000+0 -22076-1 0  9996",
        "tle_line2": "2 66812  42.9992 208.3683 0001170 269.0545 274.3789 15.64969999  4113"
      },
      "geometry": {
        "type": "Point",
        "coordinates": [
          34.9641629467013,
          -7.851947753690903
        ]
      }
    }
  ]
}